     2.11           N: GPS NAV DATA                         RINEX VERSION / TYPE
teqc  2019Feb25                         20221121 12:27:32UTCPGM / RUN BY / DATE
OSX ker:10.11.6|Core i5|gcc 4.3 -m64|OSX ker:10.10+|=+      COMMENT
    8.3819D-09  1.4901D-08 -5.9605D-08 -5.9605D-08          ION ALPHA
    8.3968D+04  1.6384D+04 -1.3107D+05 -6.5536D+04          ION BETA
   -2.793967723846D-09-7.105427357601D-15   319488     1550 DELTA-UTC: A0,A1,T,W
                                                            END OF HEADER
18 09  9 22 20  0  0.0 1.478614285588D-05 2.842170943040D-12 0.000000000000D+00
    7.800000000000D+01 7.393750000000D+01 4.968064082668D-09-1.560656847439D+00
    3.883615136147D-06 1.091278740205D-02 3.473833203316D-06 5.153631828308D+03
    2.448000000000D+05 2.272427082062D-07-1.452342451367D+00-1.247972249985D-07
    9.403336184068D-01 3.041250000000D+02-2.374903092658D+00-8.366419923543D-09
    5.678807973718D-11 1.000000000000D+00 1.550000000000D+03 0.000000000000D+00
    2.000000000000D+00 0.000000000000D+00-1.071020960808D-08 7.800000000000D+01
    2.376180000000D+05 4.000000000000D+00
11 09  9 22 20  0  0.0-2.085324376822D-05-1.705302565824D-12 0.000000000000D+00
    5.600000000000D+01 3.687500000000D+01 6.213473101809D-09 4.800971710028D-01
    2.129003405571D-06 9.883791441098D-03 1.009367406368D-05 5.153703437805D+03
    2.448000000000D+05 9.313225746155D-09-2.747267052757D+00 7.450580596924D-08
    8.894653059831D-01 1.438750000000D+02 7.281403324361D-01-8.853225915253D-09
   -4.635907389865D-10 1.000000000000D+00 1.550000000000D+03 0.000000000000D+00
    2.000000000000D+00 0.000000000000D+00-1.164153218269D-08 5.600000000000D+01
    2.376780000000D+05 4.000000000000D+00
28 09  9 22 19 59 44.0-2.612173557281D-05 1.136868377216D-13 0.000000000000D+00
    1.600000000000D+01-2.281250000000D+00 4.570547524507D-09-2.341054089751D+00
   -2.440065145493D-07 1.510622317437D-02 6.347894668579D-06 5.153647371292D+03
    2.447840000000D+05 2.365559339523D-07 1.693479435485D+00 3.725290298462D-09
    9.673580938446D-01 2.554375000000D+02-2.017322200630D+00-7.778895450791D-09
    6.089539368043D-10 1.000000000000D+00 1.550000000000D+03 0.000000000000D+00
    2.000000000000D+00 0.000000000000D+00-1.024454832077D-08 1.600000000000D+01
    2.386560000000D+05 4.000000000000D+00
 6 09  9 22 19 59 44.0 2.432106994092D-04 5.911715561524D-12 0.000000000000D+00
    0.000000000000D+00-3.153125000000D+01 5.472370803352D-09-1.904912748679D+00
   -1.417472958565D-06 5.817726021633D-03 7.024034857750D-06 5.153693624496D+03
    2.447840000000D+05-4.097819328308D-08 2.661802689532D+00 1.545995473862D-07
    9.342154404515D-01 2.295312500000D+02-1.249728872315D+00-8.332489938795D-09
   -2.828689254833D-10 1.000000000000D+00 1.550000000000D+03 0.000000000000D+00
    2.000000000000D+00 0.000000000000D+00-5.122274160385D-09 0.000000000000D+00
    2.389980000000D+05 4.000000000000D+00
18 09  9 22 19 59 44.0 1.478614285588D-05 2.842170943040D-12 0.000000000000D+00
    0.000000000000D+00 7.393750000000D+01 4.968064082668D-09-1.562990643577D+00
    3.883615136147D-06 1.091278635431D-02 3.473833203316D-06 5.153631828308D+03
    2.447840000000D+05 2.272427082062D-07-1.452342287520D+00-1.247972249985D-07
    9.403336198697D-01 3.041250000000D+02-2.374903129231D+00-8.366419923543D-09
    5.678807973718D-11 1.000000000000D+00 1.550000000000D+03 0.000000000000D+00
    2.000000000000D+00 0.000000000000D+00-1.071020960808D-08 0.000000000000D+00
    2.409360000000D+05 4.000000000000D+00
27 09  9 22 20  0  0.0 8.497945964336D-05 3.183231456205D-12 0.000000000000D+00
    1.300000000000D+01-6.859375000000D+01 3.789443559820D-09 2.991309127392D+00
   -3.710389137268D-06 2.135792013723D-02 9.380280971527D-06 5.153743455887D+03
    2.448000000000D+05 3.296881914139D-07 5.579765307393D-01-4.656612873077D-08
    9.759499814227D-01 2.027500000000D+02-1.543805959292D+00-7.335662702653D-09
    1.800074980348D-10 1.000000000000D+00 1.550000000000D+03 0.000000000000D+00
    2.000000000000D+00 0.000000000000D+00-4.190951585770D-09 1.300000000000D+01
    2.419980000000D+05 4.000000000000D+00
17 09  9 22 20  0  0.0 8.708378300071D-05 3.183231456205D-12 0.000000000000D+00
    2.300000000000D+01-3.081250000000D+01 4.840558771560D-09-2.893821417906D+00
   -1.583248376846D-06 4.664334584959D-03 7.394701242447D-06 5.153729919434D+03
    2.448000000000D+05-4.284083843231D-08 2.728316391477D+00-1.098960638046D-07
    9.601243545418D-01 2.358437500000D+02-2.645751732305D+00-7.982118201548D-09
   -3.464430021702D-10 1.000000000000D+00 1.550000000000D+03 0.000000000000D+00
    2.000000000000D+00 0.000000000000D+00-1.024454832077D-08 2.300000000000D+01
    2.429580000000D+05 4.000000000000D+00
26 09  9 22 20  0  0.0 6.205262616277D-05-1.136868377216D-12 0.000000000000D+00
    2.100000000000D+01-5.900000000000D+01 3.712297489234D-09 5.492014492448D-02
   -2.939254045486D-06 1.969879819080D-02 5.260109901428D-06 5.153610349655D+03
    2.448000000000D+05-1.695007085800D-07-3.735242618705D-01 3.017485141754D-07
    9.923660800762D-01 2.965312500000D+02 1.028834127665D+00-8.134624554050D-09
   -2.207234797332D-10 1.000000000000D+00 1.550000000000D+03 0.000000000000D+00
    2.000000000000D+00 0.000000000000D+00-6.053596735001D-09 2.100000000000D+01
    2.434680000000D+05 4.000000000000D+00
 9 09  9 22 20  0  0.0 7.896637544036D-05 2.160049916711D-12 0.000000000000D+00
    6.500000000000D+01-5.384375000000D+01 3.943378543259D-09-2.830892116877D-01
   -2.976506948471D-06 2.067083807196D-02 9.905546903610D-06 5.153630775452D+03
    2.448000000000D+05-2.887099981308D-07 5.822808358197D-01 1.676380634308D-07
    9.778917169780D-01 2.055625000000D+02 1.513790972087D+00-8.053549748388D-09
    3.046555472693D-10 1.000000000000D+00 1.550000000000D+03 0.000000000000D+00
    2.000000000000D+00 0.000000000000D+00-5.587935447693D-09 6.500000000000D+01
    2.439180000000D+05 4.000000000000D+00
32 09  9 22 19 59 44.0 1.916494220495D-04-7.162270776462D-12 0.000000000000D+00
    1.000000000000D+00 7.543750000000D+01 4.656622538449D-09 1.356457498837D+00
    3.516674041748D-06 1.327362190932D-02 2.829357981682D-06 5.153713899612D+03
    2.447840000000D+05 2.942979335785D-07-1.394137677922D+00-2.384185791016D-07
    9.620397253875D-01 3.215000000000D+02-1.114522709419D+00-8.325703941845D-09
    8.928943354902D-12 1.000000000000D+00 1.550000000000D+03 0.000000000000D+00
    2.000000000000D+00 0.000000000000D+00-3.259629011154D-09 1.000000000000D+00
    2.444880000000D+05 4.000000000000D+00
22 09  9 22 22  0  0.0 1.903520897031D-04-1.136868377216D-12 0.000000000000D+00
    5.400000000000D+01 8.056250000000D+01 5.132713798132D-09-1.535438056175D+00
    4.103407263756D-06 5.339235649444D-03 3.766268491745D-06 5.153662252426D+03
    2.520000000000D+05 9.872019290924D-08-1.446963153835D+00 1.005828380585D-07
    9.380040106035D-01 2.966562500000D+02-1.885758054215D+00-8.484639133562D-09
   -3.750156209059D-11 1.000000000000D+00 1.550000000000D+03 0.000000000000D+00
    4.000000000000D+00 0.000000000000D+00-1.769512891769D-08 5.400000000000D+01
    2.448180000000D+05 4.000000000000D+00
19 09  9 22 22  0  0.0 9.613111615181D-06-1.705302565824D-12 0.000000000000D+00
    7.400000000000D+01-2.990625000000D+01 4.849487714914D-09-2.502898415308D+00
   -1.452863216400D-06 5.840815138072D-03 8.087605237961D-06 5.153652652740D+03
    2.520000000000D+05-1.732259988785D-07 2.783958259722D+00 1.303851604462D-08
    9.578477394831D-01 2.250625000000D+02-2.476719006202D-01-8.001404719195D-09
   -3.014411276615D-10 1.000000000000D+00 1.550000000000D+03 0.000000000000D+00
    2.000000000000D+00 0.000000000000D+00-1.490116119385D-08 7.400000000000D+01
    2.448180000000D+05 4.000000000000D+00
11 09  9 22 22  0  0.0-2.086581662297D-05-1.705302565824D-12 0.000000000000D+00
    7.600000000000D+01 3.184375000000D+01 6.199543950176D-09 1.530172245976D+00
    1.780688762665D-06 9.884188650176D-03 1.064501702785D-05 5.153705430984D+03
    2.520000000000D+05-1.993030309677D-07-2.747331558667D+00 1.732259988785D-07
    8.894625352162D-01 1.379375000000D+02 7.282404121248D-01-8.777151317869D-09
   -3.021554431299D-10 1.000000000000D+00 1.550000000000D+03 0.000000000000D+00
    2.000000000000D+00 0.000000000000D+00-1.164153218269D-08 7.600000000000D+01
    2.448180000000D+05 4.000000000000D+00
28 09  9 22 21 59 44.0-2.612126991153D-05 1.136868377216D-13 0.000000000000D+00
    1.700000000000D+01 2.625000000000D+00 4.609834875269D-09-1.290899075082D+00
    4.917383193970D-07 1.510643388610D-02 6.461516022682D-06 5.153646095276D+03
    2.519840000000D+05 2.495944499969D-07 1.693423759748D+00 3.483146429062D-07
    9.673612303410D-01 2.553125000000D+02-2.017279931075D+00-8.027477233791D-09
    4.885917803802D-10 1.000000000000D+00 1.550000000000D+03 0.000000000000D+00
    2.000000000000D+00 0.000000000000D+00-1.024454832077D-08 1.700000000000D+01
    2.448180000000D+05 4.000000000000D+00
17 09  9 22 22  0  0.0 8.710660040379D-05 3.183231456205D-12 0.000000000000D+00
    2.400000000000D+01-2.859375000000D+01 4.849487714914D-09-1.843604900698D+00
   -1.471489667892D-06 4.663975560106D-03 7.504597306252D-06 5.153730819702D+03
    2.520000000000D+05 8.754432201386D-08 2.728258042990D+00-1.862645149231D-08
    9.601221733309D-01 2.332500000000D+02-2.645819259141D+00-8.031048811133D-09
   -2.239378993409D-10 1.000000000000D+00 1.550000000000D+03 0.000000000000D+00
    2.000000000000D+00 0.000000000000D+00-1.024454832077D-08 2.400000000000D+01
    2.448180000000D+05 4.000000000000D+00
